CCSDS_OMM_VERS = 2.0
CREATION_DATE  = 
ORIGINATOR     = 

OBJECT_NAME    = TIANHUI 7
OBJECT_ID      = 2025-314A
CENTER_NAME    = EARTH
REF_FRAME      = TEME
TIME_SYSTEM    = UTC
MEAN_ELEMENT_THEORY = SGP/SGP4

EPOCH          = 2026-01-08T03:21:31.038912
MEAN_MOTION    = 15.25383404
ECCENTRICITY   = .00013928
INCLINATION    = 97.4205
RA_OF_ASC_NODE = 85.2818
ARG_OF_PERICENTER = 102.4970
MEAN_ANOMALY   = 257.6424

EPHEMERIS_TYPE = 0
CLASSIFICATION_TYPE = U
NORAD_CAT_ID   = 67300
ELEMENT_SET_NO = 999
REV_AT_EPOCH   = 138
BSTAR          = .82629326E-4
MEAN_MOTION_DOT = .2013E-4
MEAN_MOTION_DDOT = 0

CCSDS_OMM_VERS = 2.0
CREATION_DATE  = 
ORIGINATOR     = 

OBJECT_NAME    = CZ-4B R/B
OBJECT_ID      = 2025-314B
CENTER_NAME    = EARTH
REF_FRAME      = TEME
TIME_SYSTEM    = UTC
MEAN_ELEMENT_THEORY = SGP/SGP4

EPOCH          = 2026-01-07T12:30:26.356896
MEAN_MOTION    = 15.67809367
ECCENTRICITY   = .01447514
INCLINATION    = 97.3678
RA_OF_ASC_NODE = 85.1642
ARG_OF_PERICENTER = 346.7305
MEAN_ANOMALY   = 13.0164

EPHEMERIS_TYPE = 0
CLASSIFICATION_TYPE = U
NORAD_CAT_ID   = 67301
ELEMENT_SET_NO = 999
REV_AT_EPOCH   = 127
BSTAR          = .36887192E-3
MEAN_MOTION_DOT = .72855E-3
MEAN_MOTION_DDOT = .3661274E-5

CCSDS_OMM_VERS = 2.0
CREATION_DATE  = 
ORIGINATOR     = 

OBJECT_NAME    = 2025-315A
OBJECT_ID      = 2025-315A
CENTER_NAME    = EARTH
REF_FRAME      = TEME
TIME_SYSTEM    = UTC
MEAN_ELEMENT_THEORY = SGP/SGP4

EPOCH          = 2025-12-31T14:33:49.080384
MEAN_MOTION    = 2.27864601
ECCENTRICITY   = .72957684
INCLINATION    = 19.4970
RA_OF_ASC_NODE = 100.4602
ARG_OF_PERICENTER = 180.0375
MEAN_ANOMALY   = 168.0127

EPHEMERIS_TYPE = 0
CLASSIFICATION_TYPE = U
NORAD_CAT_ID   = 67302
ELEMENT_SET_NO = 999
REV_AT_EPOCH   = 2
BSTAR          = .11928835E-2
MEAN_MOTION_DOT = .8137E-4
MEAN_MOTION_DDOT = 0

CCSDS_OMM_VERS = 2.0
CREATION_DATE  = 
ORIGINATOR     = 

OBJECT_NAME    = CZ-7A R/B
OBJECT_ID      = 2025-315B
CENTER_NAME    = EARTH
REF_FRAME      = TEME
TIME_SYSTEM    = UTC
MEAN_ELEMENT_THEORY = SGP/SGP4

EPOCH          = 2026-01-08T01:19:15.069792
MEAN_MOTION    = 2.41805695
ECCENTRICITY   = .72098661
INCLINATION    = 19.5349
RA_OF_ASC_NODE = 97.3275
ARG_OF_PERICENTER = 184.9187
MEAN_ANOMALY   = 159.1194

EPHEMERIS_TYPE = 0
CLASSIFICATION_TYPE = U
NORAD_CAT_ID   = 67303
ELEMENT_SET_NO = 999
REV_AT_EPOCH   = 21
BSTAR          = .28611487E-2
MEAN_MOTION_DOT = .125058E-2
MEAN_MOTION_DDOT = -.114004E-6

CCSDS_OMM_VERS = 2.0
CREATION_DATE  = 
ORIGINATOR     = 

OBJECT_NAME    = CSG-3
OBJECT_ID      = 2026-001A
CENTER_NAME    = EARTH
REF_FRAME      = TEME
TIME_SYSTEM    = UTC
MEAN_ELEMENT_THEORY = SGP/SGP4

EPOCH          = 2026-01-08T14:32:15.688896
MEAN_MOTION    = 14.81533346
ECCENTRICITY   = .00038494
INCLINATION    = 97.8609
RA_OF_ASC_NODE = 194.6138
ARG_OF_PERICENTER = 158.7068
MEAN_ANOMALY   = 201.4306

EPHEMERIS_TYPE = 0
CLASSIFICATION_TYPE = U
NORAD_CAT_ID   = 67304
ELEMENT_SET_NO = 999
REV_AT_EPOCH   = 82
BSTAR          = .54457064E-3
MEAN_MOTION_DOT = .4222E-4
MEAN_MOTION_DDOT = 0

CCSDS_OMM_VERS = 2.0
CREATION_DATE  = 
ORIGINATOR     = 

OBJECT_NAME    = STARLINK-36490
OBJECT_ID      = 2026-002A
CENTER_NAME    = EARTH
REF_FRAME      = TEME
TIME_SYSTEM    = UTC
MEAN_ELEMENT_THEORY = SGP/SGP4

EPOCH          = 2026-01-08T14:00:01.999872
MEAN_MOTION    = 16.03204357
ECCENTRICITY   = .00017115
INCLINATION    = 43.0003
RA_OF_ASC_NODE = 316.0222
ARG_OF_PERICENTER = 250.1537
MEAN_ANOMALY   = 264.1993

EPHEMERIS_TYPE = 0
CLASSIFICATION_TYPE = U
NORAD_CAT_ID   = 67305
ELEMENT_SET_NO = 999
REV_AT_EPOCH   = 181
BSTAR          = -.14720305E-2
MEAN_MOTION_DOT = -.947813E-2
MEAN_MOTION_DDOT = .30815035E-3

CCSDS_OMM_VERS = 2.0
CREATION_DATE  = 
ORIGINATOR     = 

OBJECT_NAME    = STARLINK-36488
OBJECT_ID      = 2026-002B
CENTER_NAME    = EARTH
REF_FRAME      = TEME
TIME_SYSTEM    = UTC
MEAN_ELEMENT_THEORY = SGP/SGP4

EPOCH          = 2026-01-08T14:00:01.999872
MEAN_MOTION    = 16.03278812
ECCENTRICITY   = .00017563
INCLINATION    = 43.0005
RA_OF_ASC_NODE = 316.0205
ARG_OF_PERICENTER = 258.6070
MEAN_ANOMALY   = 256.3978

EPHEMERIS_TYPE = 0
CLASSIFICATION_TYPE = U
NORAD_CAT_ID   = 67306
ELEMENT_SET_NO = 999
REV_AT_EPOCH   = 175
BSTAR          = -.14596631E-2
MEAN_MOTION_DOT = -.9441E-2
MEAN_MOTION_DDOT = .3062129E-3

CCSDS_OMM_VERS = 2.0
CREATION_DATE  = 
ORIGINATOR     = 

OBJECT_NAME    = STARLINK-36481
OBJECT_ID      = 2026-002C
CENTER_NAME    = EARTH
REF_FRAME      = TEME
TIME_SYSTEM    = UTC
MEAN_ELEMENT_THEORY = SGP/SGP4

EPOCH          = 2026-01-08T14:00:01.999872
MEAN_MOTION    = 16.03493293
ECCENTRICITY   = .00019466
INCLINATION    = 43.0005
RA_OF_ASC_NODE = 316.0166
ARG_OF_PERICENTER = 261.7134
MEAN_ANOMALY   = 254.8499

EPHEMERIS_TYPE = 0
CLASSIFICATION_TYPE = U
NORAD_CAT_ID   = 67307
ELEMENT_SET_NO = 999
REV_AT_EPOCH   = 175
BSTAR          = -.14666373E-2
MEAN_MOTION_DOT = -.960787E-2
MEAN_MOTION_DDOT = .31690112E-3

CCSDS_OMM_VERS = 2.0
CREATION_DATE  = 
ORIGINATOR     = 

OBJECT_NAME    = STARLINK-36449
OBJECT_ID      = 2026-002D
CENTER_NAME    = EARTH
REF_FRAME      = TEME
TIME_SYSTEM    = UTC
MEAN_ELEMENT_THEORY = SGP/SGP4

EPOCH          = 2026-01-08T14:00:01.999872
MEAN_MOTION    = 16.03588852
ECCENTRICITY   = .00020245
INCLINATION    = 43.0006
RA_OF_ASC_NODE = 316.0149
ARG_OF_PERICENTER = 265.2751
MEAN_ANOMALY   = 252.0072

EPHEMERIS_TYPE = 0
CLASSIFICATION_TYPE = U
NORAD_CAT_ID   = 67308
ELEMENT_SET_NO = 999
REV_AT_EPOCH   = 181
BSTAR          = -.14526982E-2
MEAN_MOTION_DOT = -.9572E-2
MEAN_MOTION_DDOT = .31509113E-3

CCSDS_OMM_VERS = 2.0
CREATION_DATE  = 
ORIGINATOR     = 

OBJECT_NAME    = STARLINK-36482
OBJECT_ID      = 2026-002E
CENTER_NAME    = EARTH
REF_FRAME      = TEME
TIME_SYSTEM    = UTC
MEAN_ELEMENT_THEORY = SGP/SGP4

EPOCH          = 2026-01-08T14:00:01.999872
MEAN_MOTION    = 16.04109401
ECCENTRICITY   = .00018866
INCLINATION    = 43.0009
RA_OF_ASC_NODE = 316.0061
ARG_OF_PERICENTER = 261.2146
MEAN_ANOMALY   = 259.7702

EPHEMERIS_TYPE = 0
CLASSIFICATION_TYPE = U
NORAD_CAT_ID   = 67309
ELEMENT_SET_NO = 999
REV_AT_EPOCH   = 175
BSTAR          = -.14233094E-2
MEAN_MOTION_DOT = -.967672E-2
MEAN_MOTION_DDOT = .32330287E-3

CCSDS_OMM_VERS = 2.0
CREATION_DATE  = 
ORIGINATOR     = 

OBJECT_NAME    = STARLINK-36491
OBJECT_ID      = 2026-002F
CENTER_NAME    = EARTH
REF_FRAME      = TEME
TIME_SYSTEM    = UTC
MEAN_ELEMENT_THEORY = SGP/SGP4

EPOCH          = 2026-01-08T14:00:01.999872
MEAN_MOTION    = 16.03419006
ECCENTRICITY   = .00016953
INCLINATION    = 43.0007
RA_OF_ASC_NODE = 316.0185
ARG_OF_PERICENTER = 252.3352
MEAN_ANOMALY   = 263.5316

EPHEMERIS_TYPE = 0
CLASSIFICATION_TYPE = U
NORAD_CAT_ID   = 67310
ELEMENT_SET_NO = 999
REV_AT_EPOCH   = 175
BSTAR          = -.1450659E-2
MEAN_MOTION_DOT = -.946173E-2
MEAN_MOTION_DDOT = .30792599E-3

CCSDS_OMM_VERS = 2.0
CREATION_DATE  = 
ORIGINATOR     = 

OBJECT_NAME    = STARLINK-36495
OBJECT_ID      = 2026-002G
CENTER_NAME    = EARTH
REF_FRAME      = TEME
TIME_SYSTEM    = UTC
MEAN_ELEMENT_THEORY = SGP/SGP4

EPOCH          = 2026-01-08T14:00:01.999872
MEAN_MOTION    = 16.03713287
ECCENTRICITY   = .00019187
INCLINATION    = 43.0008
RA_OF_ASC_NODE = 316.0129
ARG_OF_PERICENTER = 259.6427
MEAN_ANOMALY   = 258.4234

EPHEMERIS_TYPE = 0
CLASSIFICATION_TYPE = U
NORAD_CAT_ID   = 67311
ELEMENT_SET_NO = 999
REV_AT_EPOCH   = 191
BSTAR          = -.14610651E-2
MEAN_MOTION_DOT = -.969807E-2
MEAN_MOTION_DDOT = .32314302E-3

