TIANHUI 7               
1 67300U 25314A   26008.13994258  .00002013  00000+0  82629-4 0  9994
2 67300  97.4205  85.2818 0001392 102.4970 257.6424 15.25383404  1382
CZ-4B R/B               
1 67301U 25314B   26007.52113839  .00072855  36613-5  36887-3 0  9995
2 67301  97.3678  85.1642 0144751 346.7305  13.0164 15.67809367  1272
2025-315A               
1 67302U 25315A   25365.60681806  .00008137  00000+0  11929-2 0  9992
2 67302  19.4970 100.4602 7295768 180.0375 168.0127  2.27864601    24
CZ-7A R/B               
1 67303U 25315B   26008.05503553  .00125058 -11400-6  28611-2 0  9991
2 67303  19.5349  97.3275 7209866 184.9187 159.1194  2.41805695   214
CSG-3                   
1 67304U 26001A   26008.60573714  .00004222  00000+0  54457-3 0  9995
2 67304  97.8609 194.6138 0003849 158.7068 201.4306 14.81533346   826
STARLINK-36490          
1 67305U 26002A   26008.58335648 -.00947813  30815-3 -14720-2 0  9999
2 67305  43.0003 316.0222 0001711 250.1537 264.1993 16.03204357  1817
STARLINK-36488          
1 67306U 26002B   26008.58335648 -.00944100  30621-3 -14597-2 0  9993
2 67306  43.0005 316.0205 0001756 258.6070 256.3978 16.03278812  1751
STARLINK-36481          
1 67307U 26002C   26008.58335648 -.00960787  31690-3 -14666-2 0  9997
2 67307  43.0005 316.0166 0001946 261.7134 254.8499 16.03493293  1758
STARLINK-36449          
1 67308U 26002D   26008.58335648 -.00957200  31509-3 -14527-2 0  9999
2 67308  43.0006 316.0149 0002024 265.2751 252.0072 16.03588852  1813
STARLINK-36482          
1 67309U 26002E   26008.58335648 -.00967672  32330-3 -14233-2 0  9991
2 67309  43.0009 316.0061 0001886 261.2146 259.7702 16.04109401  1756
STARLINK-36491          
1 67310U 26002F   26008.58335648 -.00946173  30793-3 -14507-2 0  9991
2 67310  43.0007 316.0185 0001695 252.3352 263.5316 16.03419006  1759
STARLINK-36495          
1 67311U 26002G   26008.58335648 -.00969807  32314-3 -14611-2 0  9998
2 67311  43.0008 316.0129 0001918 259.6427 258.4234 16.03713287  1918
